{"fetched_at":"2026-07-21T07:06:33.367Z","source":"https://celestrak.org/NORAD/elements/gp.php?GROUP=spire&FORMAT=JSON","constellation":"spire","records":[{"OBJECT_NAME":"LEMUR-2-HUBBLE-4","OBJECT_ID":"2025-135AP","EPOCH":"2026-07-20T20:02:50.875584","CLASSIFICATION_TYPE":"U","MEAN_MOTION":14.93694653,"ECCENTRICITY":0.00030946,"INCLINATION":97.7723,"RA_OF_ASC_NODE":315.3537,"ARG_OF_PERICENTER":149.0927,"MEAN_ANOMALY":211.0475,"EPHEMERIS_TYPE":0,"NORAD_CAT_ID":64565,"ELEMENT_SET_NO":999,"REV_AT_EPOCH":5889,"BSTAR":0.000064472648,"MEAN_MOTION_DOT":0.00000625,"MEAN_MOTION_DDOT":0},{"OBJECT_NAME":"LEMUR-2-SEJONG-2","OBJECT_ID":"2025-135BL","EPOCH":"2026-07-20T22:19:21.834912","CLASSIFICATION_TYPE":"U","MEAN_MOTION":14.96941763,"ECCENTRICITY":0.00043064,"INCLINATION":97.7709,"RA_OF_ASC_NODE":316.7295,"ARG_OF_PERICENTER":192.0048,"MEAN_ANOMALY":168.1072,"EPHEMERIS_TYPE":0,"NORAD_CAT_ID":64586,"ELEMENT_SET_NO":999,"REV_AT_EPOCH":5899,"BSTAR":0.00030067445,"MEAN_MOTION_DOT":0.00003397,"MEAN_MOTION_DDOT":0},{"OBJECT_NAME":"LEMUR-2-HUBBLE-5","OBJECT_ID":"2025-135BT","EPOCH":"2026-07-20T20:12:42.583392","CLASSIFICATION_TYPE":"U","MEAN_MOTION":14.94221604,"ECCENTRICITY":0.00047674,"INCLINATION":97.7742,"RA_OF_ASC_NODE":316.0356,"ARG_OF_PERICENTER":212.8278,"MEAN_ANOMALY":147.2647,"EPHEMERIS_TYPE":0,"NORAD_CAT_ID":64840,"ELEMENT_SET_NO":999,"REV_AT_EPOCH":5893,"BSTAR":0.000072277989,"MEAN_MOTION_DOT":0.00000718,"MEAN_MOTION_DDOT":0},{"OBJECT_NAME":"LEMUR-2-KARENDARRELL","OBJECT_ID":"2025-135BU","EPOCH":"2026-07-20T20:45:08.400384","CLASSIFICATION_TYPE":"U","MEAN_MOTION":15.00548023,"ECCENTRICITY":0.00128951,"INCLINATION":97.772,"RA_OF_ASC_NODE":318.0329,"ARG_OF_PERICENTER":87.6727,"MEAN_ANOMALY":272.5973,"EPHEMERIS_TYPE":0,"NORAD_CAT_ID":64841,"ELEMENT_SET_NO":999,"REV_AT_EPOCH":5906,"BSTAR":0.00041543134,"MEAN_MOTION_DOT":0.00005189,"MEAN_MOTION_DDOT":0},{"OBJECT_NAME":"LEMUR-2-LUCILLE-ROSE","OBJECT_ID":"2025-135BV","EPOCH":"2026-07-20T18:30:58.534848","CLASSIFICATION_TYPE":"U","MEAN_MOTION":15.00528367,"ECCENTRICITY":0.00154621,"INCLINATION":97.7695,"RA_OF_ASC_NODE":317.9739,"ARG_OF_PERICENTER":172.4028,"MEAN_ANOMALY":187.7433,"EPHEMERIS_TYPE":0,"NORAD_CAT_ID":65403,"ELEMENT_SET_NO":999,"REV_AT_EPOCH":5367,"BSTAR":0.00032920086,"MEAN_MOTION_DOT":0.000041,"MEAN_MOTION_DDOT":0},{"OBJECT_NAME":"LEMUR-2-AFFIE-WAUWIE","OBJECT_ID":"2025-248C","EPOCH":"2026-07-20T06:31:10.706016","CLASSIFICATION_TYPE":"U","MEAN_MOTION":15.28387854,"ECCENTRICITY":0.00092673,"INCLINATION":45.3906,"RA_OF_ASC_NODE":295.5651,"ARG_OF_PERICENTER":278.2221,"MEAN_ANOMALY":81.7618,"EPHEMERIS_TYPE":0,"NORAD_CAT_ID":66295,"ELEMENT_SET_NO":999,"REV_AT_EPOCH":3965,"BSTAR":0.00045736339,"MEAN_MOTION_DOT":0.00012608,"MEAN_MOTION_DDOT":0},{"OBJECT_NAME":"OTTER SDM","OBJECT_ID":"2025-276N","EPOCH":"2026-07-20T18:12:21.224736","CLASSIFICATION_TYPE":"U","MEAN_MOTION":15.2009412,"ECCENTRICITY":0.00046511,"INCLINATION":97.4196,"RA_OF_ASC_NODE":274.683,"ARG_OF_PERICENTER":228.633,"MEAN_ANOMALY":131.4505,"EPHEMERIS_TYPE":0,"NORAD_CAT_ID":66678,"ELEMENT_SET_NO":999,"REV_AT_EPOCH":3551,"BSTAR":0.00017244671,"MEAN_MOTION_DOT":0.00003656,"MEAN_MOTION_DDOT":0},{"OBJECT_NAME":"LEMUR-2-STAS-GORBUK","OBJECT_ID":"2025-276W","EPOCH":"2026-07-20T17:10:30.492480","CLASSIFICATION_TYPE":"U","MEAN_MOTION":15.19690351,"ECCENTRICITY":0.00040039,"INCLINATION":97.4229,"RA_OF_ASC_NODE":274.6917,"ARG_OF_PERICENTER":222.7584,"MEAN_ANOMALY":137.334,"EPHEMERIS_TYPE":0,"NORAD_CAT_ID":66686,"ELEMENT_SET_NO":999,"REV_AT_EPOCH":3550,"BSTAR":0.00014301913,"MEAN_MOTION_DOT":0.00002985,"MEAN_MOTION_DDOT":0},{"OBJECT_NAME":"LEMUR-2-TEODOR","OBJECT_ID":"2025-276DG","EPOCH":"2026-07-20T22:12:54.737856","CLASSIFICATION_TYPE":"U","MEAN_MOTION":15.21374071,"ECCENTRICITY":0.00021007,"INCLINATION":97.4132,"RA_OF_ASC_NODE":275.1774,"ARG_OF_PERICENTER":83.299,"MEAN_ANOMALY":276.8485,"EPHEMERIS_TYPE":0,"NORAD_CAT_ID":66768,"ELEMENT_SET_NO":999,"REV_AT_EPOCH":3557,"BSTAR":0.00017150089,"MEAN_MOTION_DOT":0.00003775,"MEAN_MOTION_DDOT":0},{"OBJECT_NAME":"LEMUR-2-LAILA","OBJECT_ID":"2025-276DQ","EPOCH":"2026-07-20T18:18:48.268224","CLASSIFICATION_TYPE":"U","MEAN_MOTION":15.21598326,"ECCENTRICITY":0.0002837,"INCLINATION":97.4156,"RA_OF_ASC_NODE":275.1595,"ARG_OF_PERICENTER":86.3974,"MEAN_ANOMALY":273.7586,"EPHEMERIS_TYPE":0,"NORAD_CAT_ID":66776,"ELEMENT_SET_NO":999,"REV_AT_EPOCH":3555,"BSTAR":0.00015214673,"MEAN_MOTION_DOT":0.00003364,"MEAN_MOTION_DDOT":0},{"OBJECT_NAME":"LEMUR-2-CELIJO-SB-PK","OBJECT_ID":"2025-276DW","EPOCH":"2026-07-20T22:05:44.103840","CLASSIFICATION_TYPE":"U","MEAN_MOTION":15.00322329,"ECCENTRICITY":0.00066689,"INCLINATION":97.5182,"RA_OF_ASC_NODE":271.584,"ARG_OF_PERICENTER":50.4317,"MEAN_ANOMALY":309.7496,"EPHEMERIS_TYPE":0,"NORAD_CAT_ID":66781,"ELEMENT_SET_NO":999,"REV_AT_EPOCH":2768,"BSTAR":0.00032456776,"MEAN_MOTION_DOT":0.00004015,"MEAN_MOTION_DDOT":0},{"OBJECT_NAME":"LEMUR-2-FINNIAN","OBJECT_ID":"2025-276DX","EPOCH":"2026-07-20T18:09:03.377376","CLASSIFICATION_TYPE":"U","MEAN_MOTION":15.00651615,"ECCENTRICITY":0.00068821,"INCLINATION":97.5347,"RA_OF_ASC_NODE":271.7055,"ARG_OF_PERICENTER":339.6977,"MEAN_ANOMALY":20.3973,"EPHEMERIS_TYPE":0,"NORAD_CAT_ID":66782,"ELEMENT_SET_NO":999,"REV_AT_EPOCH":2503,"BSTAR":0.00013237825,"MEAN_MOTION_DOT":0.00001617,"MEAN_MOTION_DDOT":0},{"OBJECT_NAME":"LEMUR-2-STARLIGHT","OBJECT_ID":"2025-276DY","EPOCH":"2026-07-20T22:36:08.763840","CLASSIFICATION_TYPE":"U","MEAN_MOTION":14.99401727,"ECCENTRICITY":0.0014588,"INCLINATION":97.5237,"RA_OF_ASC_NODE":271.4283,"ARG_OF_PERICENTER":29.8169,"MEAN_ANOMALY":330.3883,"EPHEMERIS_TYPE":0,"NORAD_CAT_ID":66783,"ELEMENT_SET_NO":999,"REV_AT_EPOCH":3525,"BSTAR":0.00040585034,"MEAN_MOTION_DOT":0.00004923,"MEAN_MOTION_DDOT":0},{"OBJECT_NAME":"LEMUR-2-TARTIFLETTE","OBJECT_ID":"2025-276DZ","EPOCH":"2026-07-20T17:45:38.407968","CLASSIFICATION_TYPE":"U","MEAN_MOTION":14.9937955,"ECCENTRICITY":0.00138278,"INCLINATION":97.5234,"RA_OF_ASC_NODE":271.2411,"ARG_OF_PERICENTER":39.2662,"MEAN_ANOMALY":320.9562,"EPHEMERIS_TYPE":0,"NORAD_CAT_ID":66784,"ELEMENT_SET_NO":999,"REV_AT_EPOCH":3522,"BSTAR":0.00032935968,"MEAN_MOTION_DOT":0.00003981,"MEAN_MOTION_DDOT":0},{"OBJECT_NAME":"LEMUR-2-VUKASIN","OBJECT_ID":"2025-276EA","EPOCH":"2026-07-20T21:44:38.653152","CLASSIFICATION_TYPE":"U","MEAN_MOTION":15.00577178,"ECCENTRICITY":0.00021636,"INCLINATION":97.5201,"RA_OF_ASC_NODE":271.7688,"ARG_OF_PERICENTER":34.4346,"MEAN_ANOMALY":325.7018,"EPHEMERIS_TYPE":0,"NORAD_CAT_ID":66785,"ELEMENT_SET_NO":999,"REV_AT_EPOCH":3520,"BSTAR":0.00027508631,"MEAN_MOTION_DOT":0.00003416,"MEAN_MOTION_DDOT":0},{"OBJECT_NAME":"LEMUR-2-HOTSPUR-TOM","OBJECT_ID":"2025-276EB","EPOCH":"2026-07-20T17:38:07.043136","CLASSIFICATION_TYPE":"U","MEAN_MOTION":14.99275319,"ECCENTRICITY":0.00135776,"INCLINATION":97.5213,"RA_OF_ASC_NODE":271.2081,"ARG_OF_PERICENTER":31.1148,"MEAN_ANOMALY":329.0877,"EPHEMERIS_TYPE":0,"NORAD_CAT_ID":66786,"ELEMENT_SET_NO":999,"REV_AT_EPOCH":3515,"BSTAR":0.00028641293,"MEAN_MOTION_DOT":0.00003444,"MEAN_MOTION_DDOT":0}]}
