LEMUR-2-HUBBLE-4        
1 64565U 25135AP  26201.83531106  .00000625  00000+0  64473-4 0  9990
2 64565  97.7723 315.3537 0003094 149.0927 211.0475 14.93694653 58898
LEMUR-2-SEJONG-2        
1 64586U 25135BL  26201.93011383  .00003397  00000+0  30067-3 0  9994
2 64586  97.7709 316.7295 0004306 192.0048 168.1072 14.96941763 58996
LEMUR-2-HUBBLE-5        
1 64840U 25135BT  26201.84215953  .00000718  00000+0  72278-4 0  9991
2 64840  97.7742 316.0356 0004767 212.8278 147.2647 14.94221604 58937
LEMUR-2-KARENDARRELL    
1 64841U 25135BU  26201.86468056  .00005189  00000+0  41543-3 0  9995
2 64841  97.7720 318.0329 0012895  87.6727 272.5973 15.00548023 59068
LEMUR-2-LUCILLE-ROSE    
1 65403U 25135BV  26201.77151082  .00004100  00000+0  32920-3 0  9999
2 65403  97.7695 317.9739 0015462 172.4028 187.7433 15.00528367 53675
LEMUR-2-AFFIE-WAUWIE    
1 66295U 25248C   26201.27165169  .00012608  00000+0  45736-3 0  9991
2 66295  45.3906 295.5651 0009267 278.2221  81.7618 15.28387854 39653
OTTER SDM               
1 66678U 25276N   26201.75857899  .00003656  00000+0  17245-3 0  9995
2 66678  97.4196 274.6830 0004651 228.6330 131.4505 15.20094120 35518
LEMUR-2-STAS-GORBUK     
1 66686U 25276W   26201.71563070  .00002985  00000+0  14302-3 0  9990
2 66686  97.4229 274.6917 0004003 222.7584 137.3340 15.19690351 35504
LEMUR-2-TEODOR          
1 66768U 25276DG  26201.92563354  .00003775  00000+0  17150-3 0  9991
2 66768  97.4132 275.1774 0002100  83.2990 276.8485 15.21374071 35579
LEMUR-2-LAILA           
1 66776U 25276DQ  26201.76305866  .00003364  00000+0  15215-3 0  9998
2 66776  97.4156 275.1595 0002837  86.3974 273.7586 15.21598326 35555
LEMUR-2-CELIJO-SB-PK    
1 66781U 25276DW  26201.92064935  .00004015  00000+0  32457-3 0  9992
2 66781  97.5182 271.5840 0006668  50.4317 309.7496 15.00322329 27683
LEMUR-2-FINNIAN         
1 66782U 25276DX  26201.75628909  .00001617  00000+0  13238-3 0  9992
2 66782  97.5347 271.7055 0006882 339.6977  20.3973 15.00651615 25035
LEMUR-2-STARLIGHT       
1 66783U 25276DY  26201.94176810  .00004923  00000+0  40585-3 0  9991
2 66783  97.5237 271.4283 0014588  29.8169 330.3883 14.99401727 35250
LEMUR-2-TARTIFLETTE     
1 66784U 25276DZ  26201.74002787  .00003981  00000+0  32936-3 0  9995
2 66784  97.5234 271.2411 0013827  39.2662 320.9562 14.99379550 35221
LEMUR-2-VUKASIN         
1 66785U 25276EA  26201.90600293  .00003416  00000+0  27509-3 0  9993
2 66785  97.5201 271.7688 0002163  34.4346 325.7018 15.00577178 35200
LEMUR-2-HOTSPUR-TOM     
1 66786U 25276EB  26201.73480374  .00003444  00000+0  28641-3 0  9990
2 66786  97.5213 271.2081 0013577  31.1148 329.0877 14.99275319 35154
